{"type": "FeatureCollection", "features": [ {"type": "Feature", "properties": {"norad_id": 33153, "name": "INTELSAT 25 (IS-25)", "group": "intelsat", "lat": 1.436670298181662, "lon": 121.36103942651795, "alt_km": 35803.81121544221, "timestamp": "2025-12-25T03:55:55.974844+00:00", "meta": {"OBJECT_NAME": "INTELSAT 25 (IS-25)", "OBJECT_ID": "2008-034A", "EPOCH": "2025-12-24T16:22:07.284864", "MEAN_MOTION": 1.00272122, "ECCENTRICITY": 0.0004894, "INCLINATION": 2.2566, "RA_OF_ASC_NODE": 82.5213, "ARG_OF_PERICENTER": 188.9517, "MEAN_ANOMALY": 36.0148, "EPHEMERIS_TYPE": 0, "CLASSIFICATION_TYPE": "U", "NORAD_CAT_ID": 33153, "ELEMENT_SET_NO": 999, "REV_AT_EPOCH": 6394, "BSTAR": 0, "MEAN_MOTION_DOT": -2.04e-06, "MEAN_MOTION_DDOT": 0}, "tle": {"line1": "1 33153U 08034A   25358.68202876 -.00000204  00000+0  00000+0 0  9997", "line2": "2 33153   2.2566  82.5213 0004894 188.9517  36.0148  1.00272122 63944"}}, "geometry": {"type": "Point", "coordinates": [121.36103942651795, 1.436670298181662]}}, {"type": "Feature", "properties": {"norad_id": 33376, "name": "GALAXY 19 (G-19)", "group": "intelsat", "lat": 0.03166573353805851, "lon": 55.921269710227456, "alt_km": 35794.34683250301, "timestamp": "2025-12-25T03:55:55.974856+00:00", "meta": {"OBJECT_NAME": "GALAXY 19 (G-19)", "OBJECT_ID": "2008-045A", "EPOCH": "2025-12-24T14:21:03.877056", "MEAN_MOTION": 1.00271747, "ECCENTRICITY": 0.000266, "INCLINATION": 0.0428, "RA_OF_ASC_NODE": 265.007, "ARG_OF_PERICENTER": 13.9118, "MEAN_ANOMALY": 292.7134, "EPHEMERIS_TYPE": 0, "CLASSIFICATION_TYPE": "U", "NORAD_CAT_ID": 33376, "ELEMENT_SET_NO": 999, "REV_AT_EPOCH": 6315, "BSTAR": 0, "MEAN_MOTION_DOT": -1.18e-06, "MEAN_MOTION_DDOT": 0}, "tle": {"line1": "1 33376U 08045A   25358.59796154 -.00000118  00000+0  00000+0 0  9997", "line2": "2 33376   0.0428 265.0070 0002660  13.9118 292.7134  1.00271747 63157"}}, "geometry": {"type": "Point", "coordinates": [55.921269710227456, 0.03166573353805851]}}, {"type": "Feature", "properties": {"norad_id": 35493, "name": "FM-5", "group": "intelsat", "lat": 0.022526323892342576, "lon": 66.7463352104666, "alt_km": 35786.78809485466, "timestamp": "2025-12-25T03:55:55.974868+00:00", "meta": {"OBJECT_NAME": "FM-5", "OBJECT_ID": "2009-034A", "EPOCH": "2025-12-24T14:24:11.079072", "MEAN_MOTION": 1.00269871, "ECCENTRICITY": 8.87e-05, "INCLINATION": 0.0192, "RA_OF_ASC_NODE": 294.5912, "ARG_OF_PERICENTER": 224.4062, "MEAN_ANOMALY": 64.2769, "EPHEMERIS_TYPE": 0, "CLASSIFICATION_TYPE": "U", "NORAD_CAT_ID": 35493, "ELEMENT_SET_NO": 999, "REV_AT_EPOCH": 4489, "BSTAR": 0, "MEAN_MOTION_DOT": -1.79e-06, "MEAN_MOTION_DDOT": 0}, "tle": {"line1": "1 35493U 09034A   25358.60012823 -.00000179  00000+0  00000+0 0  9991", "line2": "2 35493   0.0192 294.5912 0000887 224.4062  64.2769  1.00269871 44896"}}, "geometry": {"type": "Point", "coordinates": [66.7463352104666, 0.022526323892342576]}}, {"type": "Feature", "properties": {"norad_id": 36097, "name": "INTELSAT 14 (IS-14)", "group": "intelsat", "lat": 0.03376085533849608, "lon": 107.88399404503008, "alt_km": 35797.955724379506, "timestamp": "2025-12-25T03:55:55.974881+00:00", "meta": {"OBJECT_NAME": "INTELSAT 14 (IS-14)", "OBJECT_ID": "2009-064A", "EPOCH": "2025-12-24T04:24:38.589408", "MEAN_MOTION": 1.00269199, "ECCENTRICITY": 0.00026128, "INCLINATION": 0.0125, "RA_OF_ASC_NODE": 9.068, "ARG_OF_PERICENTER": 276.4892, "MEAN_ANOMALY": 188.5557, "EPHEMERIS_TYPE": 0, "CLASSIFICATION_TYPE": "U", "NORAD_CAT_ID": 36097, "ELEMENT_SET_NO": 999, "REV_AT_EPOCH": 5885, "BSTAR": 0, "MEAN_MOTION_DOT": -2.53e-06, "MEAN_MOTION_DDOT": 0}, "tle": {"line1": "1 36097U 09064A   25358.18377997 -.00000253  00000+0  00000+0 0  9997", "line2": "2 36097   0.0125   9.0680 0002612 276.4892 188.5557  1.00269199 58859"}}, "geometry": {"type": "Point", "coordinates": [107.88399404503008, 0.03376085533849608]}}, {"type": "Feature", "properties": {"norad_id": 36106, "name": "INTELSAT 15 (IS-15)", "group": "intelsat", "lat": -0.012910002559549822, "lon": -121.95855839740801, "alt_km": 35779.7679055757, "timestamp": "2025-12-25T03:55:55.974893+00:00", "meta": {"OBJECT_NAME": "INTELSAT 15 (IS-15)", "OBJECT_ID": "2009-067A", "EPOCH": "2025-12-24T19:44:15.860256", "MEAN_MOTION": 1.00270653, "ECCENTRICITY": 0.0002334, "INCLINATION": 0.0103, "RA_OF_ASC_NODE": 45.3233, "ARG_OF_PERICENTER": 240.4709, "MEAN_ANOMALY": 189.0214, "EPHEMERIS_TYPE": 0, "CLASSIFICATION_TYPE": "U", "NORAD_CAT_ID": 36106, "ELEMENT_SET_NO": 999, "REV_AT_EPOCH": 3948, "BSTAR": 0, "MEAN_MOTION_DOT": -1.64e-06, "MEAN_MOTION_DDOT": 0}, "tle": {"line1": "1 36106U 09067A   25358.82240579 -.00000164  00000+0  00000+0 0  9998", "line2": "2 36106   0.0103  45.3233 0002334 240.4709 189.0214  1.00270653 39483"}}, "geometry": {"type": "Point", "coordinates": [-121.95855839740801, -0.012910002559549822]}}, {"type": "Feature", "properties": {"norad_id": 36131, "name": "DIRECTV 12", "group": "intelsat", "lat": 0.00024323574630349192, "lon": 50.20646467500046, "alt_km": 35785.47698360398, "timestamp": "2025-12-25T03:55:55.974904+00:00", "meta": {"OBJECT_NAME": "DIRECTV 12", "OBJECT_ID": "2009-075A", "EPOCH": "2025-12-24T14:19:26.532768", "MEAN_MOTION": 1.00274235, "ECCENTRICITY": 5.75e-05, "INCLINATION": 0.0184, "RA_OF_ASC_NODE": 118.0209, "ARG_OF_PERICENTER": 200.6669, "MEAN_ANOMALY": 246.832, "EPHEMERIS_TYPE": 0, "CLASSIFICATION_TYPE": "U", "NORAD_CAT_ID": 36131, "ELEMENT_SET_NO": 999, "REV_AT_EPOCH": 4480, "BSTAR": 0, "MEAN_MOTION_DOT": -8.3e-07, "MEAN_MOTION_DDOT": 0}, "tle": {"line1": "1 36131U 09075A   25358.59683487 -.00000083  00000+0  00000+0 0  9998", "line2": "2 36131   0.0184 118.0209 0000575 200.6669 246.8320  1.00274235 44801"}}, "geometry": {"type": "Point", "coordinates": [50.20646467500046, 0.00024323574630349192]}}, {"type": "Feature", "properties": {"norad_id": 36397, "name": "INTELSAT 16 (IS-16)", "group": "intelsat", "lat": 0.025031555803526374, "lon": 76.72004057752768, "alt_km": 35794.55655249546, "timestamp": "2025-12-25T03:55:55.974917+00:00", "meta": {"OBJECT_NAME": "INTELSAT 16 (IS-16)", "OBJECT_ID": "2010-006A", "EPOCH": "2025-12-24T05:27:09.190080", "MEAN_MOTION": 1.00271444, "ECCENTRICITY": 0.00020354, "INCLINATION": 0.0102, "RA_OF_ASC_NODE": 330.7873, "ARG_OF_PERICENTER": 301.5522, "MEAN_ANOMALY": 186.2641, "EPHEMERIS_TYPE": 0, "CLASSIFICATION_TYPE": "U", "NORAD_CAT_ID": 36397, "ELEMENT_SET_NO": 999, "REV_AT_EPOCH": 5790, "BSTAR": 0, "MEAN_MOTION_DOT": -2.24e-06, "MEAN_MOTION_DDOT": 0}, "tle": {"line1": "1 36397U 10006A   25358.22718970 -.00000224  00000+0  00000+0 0  9991", "line2": "2 36397   0.0102 330.7873 0002035 301.5522 186.2641  1.00271444 57904"}}, "geometry": {"type": "Point", "coordinates": [76.72004057752768, 0.025031555803526374]}}, {"type": "Feature", "properties": {"norad_id": 37185, "name": "XM-5", "group": "intelsat", "lat": 0.0573471104732668, "lon": 37.67677774498284, "alt_km": 35789.92749205429, "timestamp": "2025-12-25T03:55:55.974929+00:00", "meta": {"OBJECT_NAME": "XM-5", "OBJECT_ID": "2010-053A", "EPOCH": "2025-12-24T05:59:38.935680", "MEAN_MOTION": 1.0026917, "ECCENTRICITY": 0.00020949, "INCLINATION": 0.0667, "RA_OF_ASC_NODE": 269.9385, "ARG_OF_PERICENTER": 238.903, "MEAN_ANOMALY": 278.9005, "EPHEMERIS_TYPE": 0, "CLASSIFICATION_TYPE": "U", "NORAD_CAT_ID": 37185, "ELEMENT_SET_NO": 999, "REV_AT_EPOCH": 5572, "BSTAR": 0, "MEAN_MOTION_DOT": -2e-08, "MEAN_MOTION_DDOT": 0}, "tle": {"line1": "1 37185U 10053A   25358.24975620 -.00000002  00000+0  00000+0 0  9992", "line2": "2 37185   0.0667 269.9385 0002094 238.9030 278.9005  1.00269170 55723"}}, "geometry": {"type": "Point", "coordinates": [37.67677774498284, 0.0573471104732668]}}, {"type": "Feature", "properties": {"norad_id": 37238, "name": "INTELSAT 17 (IS-17)", "group": "intelsat", "lat": -0.0007221966427717163, "lon": -141.13015606518138, "alt_km": 35781.301140068754, "timestamp": "2025-12-25T03:55:55.974941+00:00", "meta": {"OBJECT_NAME": "INTELSAT 17 (IS-17)", "OBJECT_ID": "2010-065B", "EPOCH": "2025-12-24T20:06:15.432768", "MEAN_MOTION": 1.00271392, "ECCENTRICITY": 0.000266, "INCLINATION": 0.0109, "RA_OF_ASC_NODE": 111.598, "ARG_OF_PERICENTER": 171.6759, "MEAN_ANOMALY": 177.8901, "EPHEMERIS_TYPE": 0, "CLASSIFICATION_TYPE": "U", "NORAD_CAT_ID": 37238, "ELEMENT_SET_NO": 999, "REV_AT_EPOCH": 5150, "BSTAR": 0, "MEAN_MOTION_DOT": 2e-07, "MEAN_MOTION_DDOT": 0}, "tle": {"line1": "1 37238U 10065B   25358.83767862  .00000020  00000+0  00000+0 0  9995", "line2": "2 37238   0.0109 111.5980 0002660 171.6759 177.8901  1.00271392 51509"}}, "geometry": {"type": "Point", "coordinates": [-141.13015606518138, -0.0007221966427717163]}}, {"type": "Feature", "properties": {"norad_id": 37392, "name": "INTELSAT 28 (IS-28)", "group": "intelsat", "lat": 0.8212014088475574, "lon": 121.17202143749368, "alt_km": 35799.667287157965, "timestamp": "2025-12-25T03:55:55.974953+00:00", "meta": {"OBJECT_NAME": "INTELSAT 28 (IS-28)", "OBJECT_ID": "2011-016A", "EPOCH": "2025-12-24T16:22:07.284864", "MEAN_MOTION": 1.00272162, "ECCENTRICITY": 0.0003722, "INCLINATION": 1.3536, "RA_OF_ASC_NODE": 84.927, "ARG_OF_PERICENTER": 187.0131, "MEAN_ANOMALY": 35.3378, "EPHEMERIS_TYPE": 0, "CLASSIFICATION_TYPE": "U", "NORAD_CAT_ID": 37392, "ELEMENT_SET_NO": 999, "REV_AT_EPOCH": 5153, "BSTAR": 0, "MEAN_MOTION_DOT": -2.04e-06, "MEAN_MOTION_DDOT": 0}, "tle": {"line1": "1 37392U 11016A   25358.68202876 -.00000204  00000+0  00000+0 0  9990", "line2": "2 37392   1.3536  84.9270 0003722 187.0131  35.3378  1.00272162 51533"}}, "geometry": {"type": "Point", "coordinates": [121.17202143749368, 0.8212014088475574]}}]}